ONEWEB-0275             
1 48993U 21060AC  25086.59529226 -.00000082  00000+0 -24727-3 0  9999
2 48993  87.9066 317.8044 0001859  80.2597 279.8744 13.16592315182088
ONEWEB-0276             
1 48994U 21060AD  25086.40055671  .00000132  00000+0  31194-3 0  9998
2 48994  87.9068 317.8398 0001720  72.9584 287.1736 13.16589920182085
ONEWEB-0277             
1 48995U 21060AE  25086.33722336  .00000155  00000+0  37269-3 0  9994
2 48995  87.9065 317.8899 0002118  73.6737 286.4627 13.16593826180763
ONEWEB-0278             
1 48996U 21060AF  25086.40371956  .00000125  00000+0  29420-3 0  9998
2 48996  87.9068 317.8360 0001483  81.4381 278.6918 13.16593758180902
ONEWEB-0279             
1 48997U 21060AG  25086.33563062  .00000119  00000+0  27847-3 0  9996
2 48997  87.9067 317.8458 0002051  76.7243 283.4117 13.16593509180826
ONEWEB-0282             
1 49000U 21060AK  25086.38630969  .00000168  00000+0  40688-3 0  9990
2 49000  87.9066 317.8565 0001829  75.1404 284.9929 13.16594345182136
